[{"OBJECT_NAME":"STARLINK-4014","OBJECT_ID":"2022-053AE","EPOCH":"2026-03-09T11:39:56.556000","MEAN_MOTION":15.08827681,"ECCENTRICITY":0.00011443,"INCLINATION":53.2168,"RA_OF_ASC_NODE":145.039,"ARG_OF_PERICENTER":96.0818,"MEAN_ANOMALY":264.0305,"EPHEMERIS_TYPE":0,"CLASSIFICATION_TYPE":"U","NORAD_CAT_ID":52684,"ELEMENT_SET_NO":999,"REV_AT_EPOCH":21110,"BSTAR":-0.00011274209,"MEAN_MOTION_DOT":-2.081e-5,"MEAN_MOTION_DDOT":0},{"OBJECT_NAME":"CZ-6A R\/B","OBJECT_ID":"2022-031C","EPOCH":"2026-03-09T19:50:55.360896","MEAN_MOTION":15.07476837,"ECCENTRICITY":0.00174842,"INCLINATION":97.8104,"RA_OF_ASC_NODE":273.2347,"ARG_OF_PERICENTER":181.6412,"MEAN_ANOMALY":178.4761,"EPHEMERIS_TYPE":0,"CLASSIFICATION_TYPE":"U","NORAD_CAT_ID":52152,"ELEMENT_SET_NO":999,"REV_AT_EPOCH":21633,"BSTAR":0.00020233161,"MEAN_MOTION_DOT":3.012e-5,"MEAN_MOTION_DDOT":0}]
